CCSDS_OMM_VERS = 2.0
CREATION_DATE  = 
ORIGINATOR     = 

OBJECT_NAME    = SZ-21 MODULE
OBJECT_ID      = 2025-246C
CENTER_NAME    = EARTH
REF_FRAME      = TEME
TIME_SYSTEM    = UTC
MEAN_ELEMENT_THEORY = SGP/SGP4

EPOCH          = 2025-11-29T19:34:50.983968
MEAN_MOTION    = 15.61565337
ECCENTRICITY   = .0005401
INCLINATION    = 41.4760
RA_OF_ASC_NODE = 94.8298
ARG_OF_PERICENTER = 181.8397
MEAN_ANOMALY   = 178.2423

EPHEMERIS_TYPE = 0
CLASSIFICATION_TYPE = U
NORAD_CAT_ID   = 66515
ELEMENT_SET_NO = 999
REV_AT_EPOCH   = 242
BSTAR          = .30963E-3
MEAN_MOTION_DOT = .27119E-3
MEAN_MOTION_DDOT = 0

CCSDS_OMM_VERS = 2.0
CREATION_DATE  = 
ORIGINATOR     = 

OBJECT_NAME    = STARLINK-35924
OBJECT_ID      = 2025-265A
CENTER_NAME    = EARTH
REF_FRAME      = TEME
TIME_SYSTEM    = UTC
MEAN_ELEMENT_THEORY = SGP/SGP4

EPOCH          = 2025-11-30T04:00:03.998880
MEAN_MOTION    = 15.80247207
ECCENTRICITY   = .0001656
INCLINATION    = 43.0003
RA_OF_ASC_NODE = 129.0947
ARG_OF_PERICENTER = 275.5388
MEAN_ANOMALY   = 245.0772

EPHEMERIS_TYPE = 0
CLASSIFICATION_TYPE = U
NORAD_CAT_ID   = 66516
ELEMENT_SET_NO = 999
REV_AT_EPOCH   = 295
BSTAR          = -.81204E-2
MEAN_MOTION_DOT = -.1401215E-1
MEAN_MOTION_DDOT = 0

CCSDS_OMM_VERS = 2.0
CREATION_DATE  = 
ORIGINATOR     = 

OBJECT_NAME    = STARLINK-35937
OBJECT_ID      = 2025-265B
CENTER_NAME    = EARTH
REF_FRAME      = TEME
TIME_SYSTEM    = UTC
MEAN_ELEMENT_THEORY = SGP/SGP4

EPOCH          = 2025-11-30T04:00:03.998880
MEAN_MOTION    = 15.80230222
ECCENTRICITY   = .0001622
INCLINATION    = 43.0003
RA_OF_ASC_NODE = 129.0900
ARG_OF_PERICENTER = 276.7833
MEAN_ANOMALY   = 245.9519

EPHEMERIS_TYPE = 0
CLASSIFICATION_TYPE = U
NORAD_CAT_ID   = 66517
ELEMENT_SET_NO = 999
REV_AT_EPOCH   = 297
BSTAR          = -.81679E-2
MEAN_MOTION_DOT = -.1407503E-1
MEAN_MOTION_DDOT = 0

CCSDS_OMM_VERS = 2.0
CREATION_DATE  = 
ORIGINATOR     = 

OBJECT_NAME    = STARLINK-35962
OBJECT_ID      = 2025-265C
CENTER_NAME    = EARTH
REF_FRAME      = TEME
TIME_SYSTEM    = UTC
MEAN_ELEMENT_THEORY = SGP/SGP4

EPOCH          = 2025-11-30T04:00:03.998880
MEAN_MOTION    = 15.80216924
ECCENTRICITY   = .0001702
INCLINATION    = 43.0001
RA_OF_ASC_NODE = 129.0848
ARG_OF_PERICENTER = 278.4573
MEAN_ANOMALY   = 246.2791

EPHEMERIS_TYPE = 0
CLASSIFICATION_TYPE = U
NORAD_CAT_ID   = 66518
ELEMENT_SET_NO = 999
REV_AT_EPOCH   = 297
BSTAR          = -.80969E-2
MEAN_MOTION_DOT = -.1395894E-1
MEAN_MOTION_DDOT = 0

CCSDS_OMM_VERS = 2.0
CREATION_DATE  = 
ORIGINATOR     = 

OBJECT_NAME    = STARLINK-35931
OBJECT_ID      = 2025-265D
CENTER_NAME    = EARTH
REF_FRAME      = TEME
TIME_SYSTEM    = UTC
MEAN_ELEMENT_THEORY = SGP/SGP4

EPOCH          = 2025-11-30T04:00:03.998880
MEAN_MOTION    = 15.80191171
ECCENTRICITY   = .0001613
INCLINATION    = 43.0003
RA_OF_ASC_NODE = 129.0789
ARG_OF_PERICENTER = 277.2646
MEAN_ANOMALY   = 249.6854

EPHEMERIS_TYPE = 0
CLASSIFICATION_TYPE = U
NORAD_CAT_ID   = 66519
ELEMENT_SET_NO = 999
REV_AT_EPOCH   = 297
BSTAR          = -.81963E-2
MEAN_MOTION_DOT = -.1409558E-1
MEAN_MOTION_DDOT = 0

CCSDS_OMM_VERS = 2.0
CREATION_DATE  = 
ORIGINATOR     = 

OBJECT_NAME    = STARLINK-35952
OBJECT_ID      = 2025-265E
CENTER_NAME    = EARTH
REF_FRAME      = TEME
TIME_SYSTEM    = UTC
MEAN_ELEMENT_THEORY = SGP/SGP4

EPOCH          = 2025-11-30T04:00:03.998880
MEAN_MOTION    = 15.80161314
ECCENTRICITY   = .0001423
INCLINATION    = 43.0001
RA_OF_ASC_NODE = 129.0732
ARG_OF_PERICENTER = 278.6255
MEAN_ANOMALY   = 250.5474

EPHEMERIS_TYPE = 0
CLASSIFICATION_TYPE = U
NORAD_CAT_ID   = 66520
ELEMENT_SET_NO = 999
REV_AT_EPOCH   = 297
BSTAR          = -.82674E-2
MEAN_MOTION_DOT = -.1418548E-1
MEAN_MOTION_DDOT = 0

CCSDS_OMM_VERS = 2.0
CREATION_DATE  = 
ORIGINATOR     = 

OBJECT_NAME    = STARLINK-35915
OBJECT_ID      = 2025-265F
CENTER_NAME    = EARTH
REF_FRAME      = TEME
TIME_SYSTEM    = UTC
MEAN_ELEMENT_THEORY = SGP/SGP4

EPOCH          = 2025-11-30T04:00:03.998880
MEAN_MOTION    = 15.80171766
ECCENTRICITY   = .0001531
INCLINATION    = 43.0003
RA_OF_ASC_NODE = 129.0683
ARG_OF_PERICENTER = 274.8933
MEAN_ANOMALY   = 256.2011

EPHEMERIS_TYPE = 0
CLASSIFICATION_TYPE = U
NORAD_CAT_ID   = 66521
ELEMENT_SET_NO = 999
REV_AT_EPOCH   = 297
BSTAR          = -.82955E-2
MEAN_MOTION_DOT = -.1423515E-1
MEAN_MOTION_DDOT = 0

CCSDS_OMM_VERS = 2.0
CREATION_DATE  = 
ORIGINATOR     = 

OBJECT_NAME    = STARLINK-35946
OBJECT_ID      = 2025-265G
CENTER_NAME    = EARTH
REF_FRAME      = TEME
TIME_SYSTEM    = UTC
MEAN_ELEMENT_THEORY = SGP/SGP4

EPOCH          = 2025-11-30T04:00:03.998880
MEAN_MOTION    = 15.80131147
ECCENTRICITY   = .0001695
INCLINATION    = 43.0001
RA_OF_ASC_NODE = 129.0627
ARG_OF_PERICENTER = 277.6087
MEAN_ANOMALY   = 255.7654

EPHEMERIS_TYPE = 0
CLASSIFICATION_TYPE = U
NORAD_CAT_ID   = 66522
ELEMENT_SET_NO = 999
REV_AT_EPOCH   = 297
BSTAR          = -.83512E-2
MEAN_MOTION_DOT = -.1429701E-1
MEAN_MOTION_DDOT = 0

CCSDS_OMM_VERS = 2.0
CREATION_DATE  = 
ORIGINATOR     = 

OBJECT_NAME    = STARLINK-35969
OBJECT_ID      = 2025-265H
CENTER_NAME    = EARTH
REF_FRAME      = TEME
TIME_SYSTEM    = UTC
MEAN_ELEMENT_THEORY = SGP/SGP4

EPOCH          = 2025-11-30T04:00:03.998880
MEAN_MOTION    = 15.80111172
ECCENTRICITY   = .0001575
INCLINATION    = 43.0003
RA_OF_ASC_NODE = 129.0571
ARG_OF_PERICENTER = 274.7581
MEAN_ANOMALY   = 260.7927

EPHEMERIS_TYPE = 0
CLASSIFICATION_TYPE = U
NORAD_CAT_ID   = 66523
ELEMENT_SET_NO = 999
REV_AT_EPOCH   = 297
BSTAR          = -.84634E-2
MEAN_MOTION_DOT = -.1445439E-1
MEAN_MOTION_DDOT = 0

CCSDS_OMM_VERS = 2.0
CREATION_DATE  = 
ORIGINATOR     = 

OBJECT_NAME    = STARLINK-35687
OBJECT_ID      = 2025-265J
CENTER_NAME    = EARTH
REF_FRAME      = TEME
TIME_SYSTEM    = UTC
MEAN_ELEMENT_THEORY = SGP/SGP4

EPOCH          = 2025-11-30T04:00:03.998880
MEAN_MOTION    = 15.80089130
ECCENTRICITY   = .0001613
INCLINATION    = 43.0003
RA_OF_ASC_NODE = 129.0513
ARG_OF_PERICENTER = 276.3215
MEAN_ANOMALY   = 261.4451

EPHEMERIS_TYPE = 0
CLASSIFICATION_TYPE = U
NORAD_CAT_ID   = 66524
ELEMENT_SET_NO = 999
REV_AT_EPOCH   = 297
BSTAR          = -.85947E-2
MEAN_MOTION_DOT = -.1463955E-1
MEAN_MOTION_DDOT = 0

CCSDS_OMM_VERS = 2.0
CREATION_DATE  = 
ORIGINATOR     = 

OBJECT_NAME    = STARLINK-35975
OBJECT_ID      = 2025-265K
CENTER_NAME    = EARTH
REF_FRAME      = TEME
TIME_SYSTEM    = UTC
MEAN_ELEMENT_THEORY = SGP/SGP4

EPOCH          = 2025-11-30T04:00:03.998880
MEAN_MOTION    = 15.80066974
ECCENTRICITY   = .0001444
INCLINATION    = 43.0003
RA_OF_ASC_NODE = 129.0465
ARG_OF_PERICENTER = 272.1876
MEAN_ANOMALY   = 267.6428

EPHEMERIS_TYPE = 0
CLASSIFICATION_TYPE = U
NORAD_CAT_ID   = 66525
ELEMENT_SET_NO = 999
REV_AT_EPOCH   = 297
BSTAR          = -.85393E-2
MEAN_MOTION_DOT = -.1454172E-1
MEAN_MOTION_DDOT = 0

CCSDS_OMM_VERS = 2.0
CREATION_DATE  = 
ORIGINATOR     = 

OBJECT_NAME    = STARLINK-35932
OBJECT_ID      = 2025-265L
CENTER_NAME    = EARTH
REF_FRAME      = TEME
TIME_SYSTEM    = UTC
MEAN_ELEMENT_THEORY = SGP/SGP4

EPOCH          = 2025-11-30T04:00:03.998880
MEAN_MOTION    = 15.80050603
ECCENTRICITY   = .0001419
INCLINATION    = 43.0003
RA_OF_ASC_NODE = 129.0410
ARG_OF_PERICENTER = 277.7458
MEAN_ANOMALY   = 264.2741

EPHEMERIS_TYPE = 0
CLASSIFICATION_TYPE = U
NORAD_CAT_ID   = 66526
ELEMENT_SET_NO = 999
REV_AT_EPOCH   = 286
BSTAR          = -.86979E-2
MEAN_MOTION_DOT = -.1476989E-1
MEAN_MOTION_DDOT = 0

