SZ-21 MODULE            
1 66515U 25246C   25333.81586787  .00027119  00000+0  30963-3 0  9991
2 66515  41.4760  94.8298 0005401 181.8397 178.2423 15.61565337  2421
STARLINK-35924          
1 66516U 25265A   25334.16671295 -.01401215  00000+0 -81204-2 0  9990
2 66516  43.0003 129.0947 0001656 275.5388 245.0772 15.80247207  2953
STARLINK-35937          
1 66517U 25265B   25334.16671295 -.01407503  00000+0 -81679-2 0  9993
2 66517  43.0003 129.0900 0001622 276.7833 245.9519 15.80230222  2973
STARLINK-35962          
1 66518U 25265C   25334.16671295 -.01395894  00000+0 -80969-2 0  9994
2 66518  43.0001 129.0848 0001702 278.4573 246.2791 15.80216924  2971
STARLINK-35931          
1 66519U 25265D   25334.16671295 -.01409558  00000+0 -81963-2 0  9993
2 66519  43.0003 129.0789 0001613 277.2646 249.6854 15.80191171  2970
STARLINK-35952          
1 66520U 25265E   25334.16671295 -.01418548  00000+0 -82674-2 0  9994
2 66520  43.0001 129.0732 0001423 278.6255 250.5474 15.80161314  2973
STARLINK-35915          
1 66521U 25265F   25334.16671295 -.01423515  00000+0 -82955-2 0  9997
2 66521  43.0003 129.0683 0001531 274.8933 256.2011 15.80171766  2974
STARLINK-35946          
1 66522U 25265G   25334.16671295 -.01429701  00000+0 -83512-2 0  9991
2 66522  43.0001 129.0627 0001695 277.6087 255.7654 15.80131147  2979
STARLINK-35969          
1 66523U 25265H   25334.16671295 -.01445439  00000+0 -84634-2 0  9994
2 66523  43.0003 129.0571 0001575 274.7581 260.7927 15.80111172  2979
STARLINK-35687          
1 66524U 25265J   25334.16671295 -.01463955  00000+0 -85947-2 0  9996
2 66524  43.0003 129.0513 0001613 276.3215 261.4451 15.80089130  2979
STARLINK-35975          
1 66525U 25265K   25334.16671295 -.01454172  00000+0 -85393-2 0  9993
2 66525  43.0003 129.0465 0001444 272.1876 267.6428 15.80066974  2978
STARLINK-35932          
1 66526U 25265L   25334.16671295 -.01476989  00000+0 -86979-2 0  9995
2 66526  43.0003 129.0410 0001419 277.7458 264.2741 15.80050603  2869
